{
  "type": "FeatureCollection",
  "features": [
    {
      "type": "Feature",
      "properties": {
        "norad_id": 32376,
        "name": "COSMO-SKYMED 2",
        "group": "resource",
        "lat": 49.44038012298423,
        "lon": -6.563931538247678,
        "alt_km": 617.2935962811389,
        "timestamp": "2025-12-08T17:43:04.550561+00:00",
        "meta_object_name": "COSMO-SKYMED 2",
        "meta_object_id": "2007-059A",
        "meta_epoch": "2025-12-08T05:47:32.917344",
        "meta_mean_motion": 14.82157934,
        "meta_eccentricity": 0.00015248,
        "meta_inclination": 97.8812,
        "meta_ra_of_asc_node": 163.6328,
        "meta_arg_of_pericenter": 86.282,
        "meta_mean_anomaly": 273.8568,
        "meta_ephemeris_type": 0,
        "meta_classification_type": "U",
        "meta_norad_cat_id": 32376,
        "meta_element_set_no": 999,
        "meta_rev_at_epoch": 97371,
        "meta_bstar": 0.00014661367,
        "meta_mean_motion_dot": 1.115e-05,
        "meta_mean_motion_ddot": 0,
        "tle_line1": "1 32376U 07059A   25342.24135321  .00001115  00000+0  14661-3 0  9997",
        "tle_line2": "2 32376  97.8812 163.6328 0001524  86.2820 273.8568 14.82157934973715"
      },
      "geometry": {
        "type": "Point",
        "coordinates": [
          -6.563931538247678,
          49.44038012298423
        ]
      }
    },
    {
      "type": "Feature",
      "properties": {
        "norad_id": 32382,
        "name": "RADARSAT-2",
        "group": "resource",
        "lat": 69.0536163980584,
        "lon": -169.38463541570016,
        "alt_km": 784.3110716459541,
        "timestamp": "2025-12-08T17:43:04.550573+00:00",
        "meta_object_name": "RADARSAT-2",
        "meta_object_id": "2007-061A",
        "meta_epoch": "2025-12-08T07:08:01.147200",
        "meta_mean_motion": 14.29985638,
        "meta_eccentricity": 0.00010864,
        "meta_inclination": 98.5799,
        "meta_ra_of_asc_node": 346.952,
        "meta_arg_of_pericenter": 91.7971,
        "meta_mean_anomaly": 268.3335,
        "meta_ephemeris_type": 0,
        "meta_classification_type": "U",
        "meta_norad_cat_id": 32382,
        "meta_element_set_no": 999,
        "meta_rev_at_epoch": 93867,
        "meta_bstar": 7.7213705e-05,
        "meta_mean_motion_dot": 1.55e-06,
        "meta_mean_motion_ddot": 0,
        "tle_line1": "1 32382U 07061A   25342.29723550  .00000155  00000+0  77214-4 0  9996",
        "tle_line2": "2 32382  98.5799 346.9520 0001086  91.7971 268.3335 14.29985638938673"
      },
      "geometry": {
        "type": "Point",
        "coordinates": [
          -169.38463541570016,
          69.0536163980584
        ]
      }
    },
    {
      "type": "Feature",
      "properties": {
        "norad_id": 32783,
        "name": "CARTOSAT-2A",
        "group": "resource",
        "lat": -43.68117556975207,
        "lon": 40.2023370782159,
        "alt_km": 635.320850759822,
        "timestamp": "2025-12-08T17:43:04.550584+00:00",
        "meta_object_name": "CARTOSAT-2A",
        "meta_object_id": "2008-021A",
        "meta_epoch": "2025-12-08T06:33:01.864800",
        "meta_mean_motion": 14.78925323,
        "meta_eccentricity": 0.00121424,
        "meta_inclination": 97.7936,
        "meta_ra_of_asc_node": 32.2359,
        "meta_arg_of_pericenter": 18.7727,
        "meta_mean_anomaly": 341.393,
        "meta_ephemeris_type": 0,
        "meta_classification_type": "U",
        "meta_norad_cat_id": 32783,
        "meta_element_set_no": 999,
        "meta_rev_at_epoch": 95058,
        "meta_bstar": 0.00023626864,
        "meta_mean_motion_dot": 1.694e-05,
        "meta_mean_motion_ddot": 0,
        "tle_line1": "1 32783U 08021A   25342.27293825  .00001694  00000+0  23627-3 0  9990",
        "tle_line2": "2 32783  97.7936  32.2359 0012142  18.7727 341.3930 14.78925323950586"
      },
      "geometry": {
        "type": "Point",
        "coordinates": [
          40.2023370782159,
          -43.68117556975207
        ]
      }
    },
    {
      "type": "Feature",
      "properties": {
        "norad_id": 33320,
        "name": "HUANJING 1A (HJ-1A)",
        "group": "resource",
        "lat": 61.376762918404346,
        "lon": 165.46896921708827,
        "alt_km": 607.9691955828666,
        "timestamp": "2025-12-08T17:43:04.550596+00:00",
        "meta_object_name": "HUANJING 1A (HJ-1A)",
        "meta_object_id": "2008-041A",
        "meta_epoch": "2025-12-08T05:51:31.879008",
        "meta_mean_motion": 14.83372973,
        "meta_eccentricity": 0.00204102,
        "meta_inclination": 97.654,
        "meta_ra_of_asc_node": 330.7301,
        "meta_arg_of_pericenter": 48.611,
        "meta_mean_anomaly": 311.6855,
        "meta_ephemeris_type": 0,
        "meta_classification_type": "U",
        "meta_norad_cat_id": 33320,
        "meta_element_set_no": 999,
        "meta_rev_at_epoch": 93009,
        "meta_bstar": 0.00033681935,
        "meta_mean_motion_dot": 2.721e-05,
        "meta_mean_motion_ddot": 0,
        "tle_line1": "1 33320U 08041A   25342.24411897  .00002721  00000+0  33682-3 0  9992",
        "tle_line2": "2 33320  97.6540 330.7301 0020410  48.6110 311.6855 14.83372973930095"
      },
      "geometry": {
        "type": "Point",
        "coordinates": [
          165.46896921708827,
          61.376762918404346
        ]
      }
    },
    {
      "type": "Feature",
      "properties": {
        "norad_id": 33321,
        "name": "HUANJING 1B (HJ-1B)",
        "group": "resource",
        "lat": -13.70212915690893,
        "lon": -23.21346514213016,
        "alt_km": 630.6439595389675,
        "timestamp": "2025-12-08T17:43:04.550607+00:00",
        "meta_object_name": "HUANJING 1B (HJ-1B)",
        "meta_object_id": "2008-041B",
        "meta_epoch": "2025-12-08T06:26:36.008448",
        "meta_mean_motion": 14.828038,
        "meta_eccentricity": 0.00382334,
        "meta_inclination": 97.6398,
        "meta_ra_of_asc_node": 334.4622,
        "meta_arg_of_pericenter": 89.9808,
        "meta_mean_anomaly": 270.5787,
        "meta_ephemeris_type": 0,
        "meta_classification_type": "U",
        "meta_norad_cat_id": 33321,
        "meta_element_set_no": 999,
        "meta_rev_at_epoch": 93011,
        "meta_bstar": 0.00028207054,
        "meta_mean_motion_dot": 2.259e-05,
        "meta_mean_motion_ddot": 0,
        "tle_line1": "1 33321U 08041B   25342.26847232  .00002259  00000+0  28207-3 0  9994",
        "tle_line2": "2 33321  97.6398 334.4622 0038233  89.9808 270.5787 14.82803800930115"
      },
      "geometry": {
        "type": "Point",
        "coordinates": [
          -23.21346514213016,
          -13.70212915690893
        ]
      }
    },
    {
      "type": "Feature",
      "properties": {
        "norad_id": 33331,
        "name": "GEOEYE 1",
        "group": "resource",
        "lat": -51.08090338215321,
        "lon": -136.12299710849538,
        "alt_km": 683.7438153862777,
        "timestamp": "2025-12-08T17:43:04.550620+00:00",
        "meta_object_name": "GEOEYE 1",
        "meta_object_id": "2008-042A",
        "meta_epoch": "2025-12-08T06:49:35.068224",
        "meta_mean_motion": 14.64803929,
        "meta_eccentricity": 0.00028075,
        "meta_inclination": 98.1257,
        "meta_ra_of_asc_node": 53.6207,
        "meta_arg_of_pericenter": 296.5347,
        "meta_mean_anomaly": 63.5568,
        "meta_ephemeris_type": 0,
        "meta_classification_type": "U",
        "meta_norad_cat_id": 33331,
        "meta_element_set_no": 999,
        "meta_rev_at_epoch": 92220,
        "meta_bstar": 0.00024133487,
        "meta_mean_motion_dot": 1.24e-05,
        "meta_mean_motion_ddot": 0,
        "tle_line1": "1 33331U 08042A   25342.28443366  .00001240  00000+0  24133-3 0  9991",
        "tle_line2": "2 33331  98.1257  53.6207 0002807 296.5347  63.5568 14.64803929922207"
      },
      "geometry": {
        "type": "Point",
        "coordinates": [
          -136.12299710849538,
          -51.08090338215321
        ]
      }
    },
    {
      "type": "Feature",
      "properties": {
        "norad_id": 33396,
        "name": "THEOS",
        "group": "resource",
        "lat": 11.363926725533858,
        "lon": 39.20549247903378,
        "alt_km": 826.3211150803154,
        "timestamp": "2025-12-08T17:43:04.550636+00:00",
        "meta_object_name": "THEOS",
        "meta_object_id": "2008-049A",
        "meta_epoch": "2025-12-08T05:49:37.462080",
        "meta_mean_motion": 14.20095152,
        "meta_eccentricity": 0.00011114,
        "meta_inclination": 98.5875,
        "meta_ra_of_asc_node": 40.465,
        "meta_arg_of_pericenter": 100.5305,
        "meta_mean_anomaly": 259.5997,
        "meta_ephemeris_type": 0,
        "meta_classification_type": "U",
        "meta_norad_cat_id": 33396,
        "meta_element_set_no": 999,
        "meta_rev_at_epoch": 89086,
        "meta_bstar": 9.3807125e-05,
        "meta_mean_motion_dot": 1.57e-06,
        "meta_mean_motion_ddot": 0,
        "tle_line1": "1 33396U 08049A   25342.24279470  .00000157  00000+0  93807-4 0  9999",
        "tle_line2": "2 33396  98.5875  40.4650 0001111 100.5305 259.5997 14.20095152890861"
      },
      "geometry": {
        "type": "Point",
        "coordinates": [
          39.20549247903378,
          11.363926725533858
        ]
      }
    }
  ]
}